1 08820U 76039A   03131.62694638  .00000021  00000-0  10000-3 0  9396
2 08820 109.8091 169.0905 0044350 309.3290  50.3534  6.38664531374725
